CTC1_L_00540032-01
1 44441U 22529YK  26037.47809028  .00000000  00000+0  00000-0 0  9992
2 44441  99.7000  74.4000 0000000   0.0000 148.8000 13.56072426    17
CTC1_L_00540032-02
1 44442U 26564LB  26037.47809028  .00000000  00000+0  00000-0 0  9996
2 44442  99.7000  74.4000 0000000   0.0000 328.8000 13.56072426    18
CTC1_L_00540033-01
1 44443U 22952YA  26037.47809028  .00000000  00000+0  00000-0 0  9994
2 44443  99.7000  76.8000 0000000   0.0000 153.6000 13.56072426    19
CTC1_L_00540033-02
1 44444U 23477RA  26037.47809028  .00000000  00000+0  00000-0 0  9998
2 44444  99.7000  76.8000 0000000   0.0000 333.6000 13.56072426    10
CTC1_L_00540034-01
1 44445U 25098VP  26037.47809028  .00000000  00000+0  00000-0 0  9990
2 44445  99.7000  79.2000 0000000   0.0000 158.4000 13.56072426    11
CTC1_L_00540034-02
1 44446U 23423LF  26037.47809028  .00000000  00000+0  00000-0 0  9991
2 44446  99.7000  79.2000 0000000   0.0000 338.4000 13.56072426    12
CTC1_L_00540035-01
1 44447U 24232KY  26037.47809028  .00000000  00000+0  00000-0 0  9991
2 44447  99.7000  81.6000 0000000   0.0000 163.2000 13.56072426    14
CTC1_L_00540035-02
1 44448U 26030EO  26037.47809028  .00000000  00000+0  00000-0 0  9990
2 44448  99.7000  81.6000 0000000   0.0000 343.2000 13.56072426    15
CTC1_L_00540036-01
1 44449U 25677DN  26037.47809028  .00000000  00000+0  00000-0 0  9997
2 44449  99.7000  84.0000 0000000   0.0000 168.0000 13.56072426    16
CTC1_L_00540036-02
1 44450U 24950EH  26037.47809028  .00000000  00000+0  00000-0 0  9992
2 44450  99.7000  84.0000 0000000   0.0000 348.0000 13.56072426    18
CTC1_L_00540037-01
1 44451U 26942OL  26037.47809028  .00000000  00000+0  00000-0 0  9996
2 44451  99.7000  86.4000 0000000   0.0000 172.8000 13.56072426    18
CTC1_L_00540037-02
1 44452U 25730JZ  26037.47809028  .00000000  00000+0  00000-0 0  9991
2 44452  99.7000  86.4000 0000000   0.0000 352.8000 13.56072426    19
CTC1_L_00540038-01
1 44453U 23487UC  26037.47809028  .00000000  00000+0  00000-0 0  9999
2 44453  99.7000  88.8000 0000000   0.0000 177.6000 13.56072426    19
CTC1_L_00540038-02
1 44454U 26297ZQ  26037.47809028  .00000000  00000+0  00000-0 0  9992
2 44454  99.7000  88.8000 0000000   0.0000 357.6000 13.56072426    10
CTC1_L_00540039-01
1 44455U 24870GJ  26037.47809028  .00000000  00000+0  00000-0 0  9998
2 44455  99.7000  91.2000 0000000   0.0000 182.4000 13.56072426    13
CTC1_L_00540039-02
1 44456U 23017JW  26037.47809028  .00000000  00000+0  00000-0 0  9991
2 44456  99.7000  91.2000 0000000   0.0000   2.4000 13.56072426    15
CTC1_L_00540040-01
1 44457U 24003WZ  26037.47809028  .00000000  00000+0  00000-0 0  9998
2 44457  99.7000  93.6000 0000000   0.0000 187.2000 13.56072426    14
CTC1_L_00540040-02
1 44458U 24511KX  26037.47809028  .00000000  00000+0  00000-0 0  9993
2 44458  99.7000  93.6000 0000000   0.0000   7.2000 13.56072426    16
CTC1_L_00540041-01
1 44459U 26860JV  26037.47809028  .00000000  00000+0  00000-0 0  9993
2 44459  99.7000  96.0000 0000000   0.0000 192.0000 13.56072426    17
CTC1_L_00540041-02
1 44460U 22035OT  26037.47809028  .00000000  00000+0  00000-0 0  9995
2 44460  99.7000  96.0000 0000000   0.0000  12.0000 13.56072426    10
CTC1_L_00540042-01
1 44461U 23247DI  26037.47809028  .00000000  00000+0  00000-0 0  9992
2 44461  99.7000  98.4000 0000000   0.0000 196.8000 13.56072426    18
CTC1_L_00540042-02
1 44462U 24892RX  26037.47809028  .00000000  00000+0  00000-0 0  9990
2 44462  99.7000  98.4000 0000000   0.0000  16.8000 13.56072426    10
CTC1_L_00540043-01
1 44463U 25389ZX  26037.47809028  .00000000  00000+0  00000-0 0  9993
2 44463  99.7000 100.8000 0000000   0.0000 201.6000 13.56072426    13
CTC1_L_00540043-02
1 44464U 25751FR  26037.47809028  .00000000  00000+0  00000-0 0  9997
2 44464  99.7000 100.8000 0000000   0.0000  21.6000 13.56072426    14
CTC1_L_00540044-01
1 44465U 26019KU  26037.47809028  .00000000  00000+0  00000-0 0  9996
2 44465  99.7000 103.2000 0000000   0.0000 206.4000 13.56072426    15
CTC1_L_00540044-02
1 44466U 22713ZF  26037.47809028  .00000000  00000+0  00000-0 0  9994
2 44466  99.7000 103.2000 0000000   0.0000  26.4000 13.56072426    16
CTC1_L_00540045-01
1 44467U 22033GY  26037.47809028  .00000000  00000+0  00000-0 0  9990
2 44467  99.7000 105.6000 0000000   0.0000 211.2000 13.56072426    17
CTC1_L_00540045-02
1 44468U 26289SM  26037.47809028  .00000000  00000+0  00000-0 0  9998
2 44468  99.7000 105.6000 0000000   0.0000  31.2000 13.56072426    18
CTC1_L_00540046-01
1 44469U 24348RB  26037.47809028  .00000000  00000+0  00000-0 0  9993
2 44469  99.7000 108.0000 0000000   0.0000 216.0000 13.56072426    19
CTC1_L_00540046-02
1 44470U 23469FU  26037.47809028  .00000000  00000+0  00000-0 0  9998
2 44470  99.7000 108.0000 0000000   0.0000  36.0000 13.56072426    11
CTC1_L_00540047-01
1 44471U 22672JC  26037.47809028  .00000000  00000+0  00000-0 0  9994
2 44471  99.7000 110.4000 0000000   0.0000 220.8000 13.56072426    12
CTC1_L_00540047-02
1 44472U 24003FY  26037.47809028  .00000000  00000+0  00000-0 0  9995
2 44472  99.7000 110.4000 0000000   0.0000  40.8000 13.56072426    13
CTC1_L_00540048-01
1 44473U 22937ZV  26037.47809028  .00000000  00000+0  00000-0 0  9990
2 44473  99.7000 112.8000 0000000   0.0000 225.6000 13.56072426    13
CTC1_L_00540048-02
1 44474U 25586BW  26037.47809028  .00000000  00000+0  00000-0 0  9994
2 44474  99.7000 112.8000 0000000   0.0000  45.6000 13.56072426    14
CTC1_L_00540049-01
1 44475U 25933JR  26037.47809028  .00000000  00000+0  00000-0 0  9991
2 44475  99.7000 115.2000 0000000   0.0000 230.4000 13.56072426    16
CTC1_L_00540049-02
1 44476U 22024JE  26037.47809028  .00000000  00000+0  00000-0 0  9990
2 44476  99.7000 115.2000 0000000   0.0000  50.4000 13.56072426    17
CTC1_L_00540050-01
1 44477U 23956CF  26037.47809028  .00000000  00000+0  00000-0 0  9996
2 44477  99.7000 117.6000 0000000   0.0000 235.2000 13.56072426    17
CTC1_L_00540050-02
1 44478U 25223OQ  26037.47809028  .00000000  00000+0  00000-0 0  9996
2 44478  99.7000 117.6000 0000000   0.0000  55.2000 13.56072426    18
CTC1_L_00540051-01
1 44479U 22282UF  26037.47809028  .00000000  00000+0  00000-0 0  9999
2 44479  99.7000 120.0000 0000000   0.0000 240.0000 13.56072426    11
CTC1_L_00540051-02
1 44480U 24417DH  26037.47809028  .00000000  00000+0  00000-0 0  9993
2 44480  99.7000 120.0000 0000000   0.0000  60.0000 13.56072426    13
CTC1_L_00540052-01
1 44481U 25461PP  26037.47809028  .00000000  00000+0  00000-0 0  9994
2 44481  99.7000 122.4000 0000000   0.0000 244.8000 13.56072426    12
CTC1_L_00540052-02
1 44482U 23478JM  26037.47809028  .00000000  00000+0  00000-0 0  9991
2 44482  99.7000 122.4000 0000000   0.0000  64.8000 13.56072426    13
CTC1_L_00540053-01
1 44483U 22345MH  26037.47809028  .00000000  00000+0  00000-0 0  9994
2 44483  99.7000 124.8000 0000000   0.0000 249.6000 13.56072426    13
CTC1_L_00540053-02
1 44484U 24624W   26037.47809028  .00000000  00000+0  00000-0 0  9997
2 44484  99.7000 124.8000 0000000   0.0000  69.6000 13.56072426    14
CTC1_L_00540054-01
1 44485U 26924XR  26037.47809028  .00000000  00000+0  00000-0 0  9993
2 44485  99.7000 127.2000 0000000   0.0000 254.4000 13.56072426    16
CTC1_L_00540054-02
1 44486U 24843TJ  26037.47809028  .00000000  00000+0  00000-0 0  9992
2 44486  99.7000 127.2000 0000000   0.0000  74.4000 13.56072426    17
CTC1_L_00540055-01
1 44487U 22749GZ  26037.47809028  .00000000  00000+0  00000-0 0  9996
2 44487  99.7000 129.6000 0000000   0.0000 259.2000 13.56072426    17
CTC1_L_00540055-02
1 44488U 22266LT  26037.47809028  .00000000  00000+0  00000-0 0  9991
2 44488  99.7000 129.6000 0000000   0.0000  79.2000 13.56072426    18
CTC1_L_00540056-01
1 44489U 22343NF  26037.47809028  .00000000  00000+0  00000-0 0  9998
2 44489  99.7000 132.0000 0000000   0.0000 264.0000 13.56072426    11
CTC1_L_00540056-02
1 44490U 24446BI  26037.47809028  .00000000  00000+0  00000-0 0  9996
2 44490  99.7000 132.0000 0000000   0.0000  84.0000 13.56072426    13
CTC1_L_00540057-01
1 44491U 22637BS  26037.47809028  .00000000  00000+0  00000-0 0  9997
2 44491  99.7000 134.4000 0000000   0.0000 268.8000 13.56072426    12
CTC1_L_00540057-02
1 44492U 22824ID  26037.47809028  .00000000  00000+0  00000-0 0  9996
2 44492  99.7000 134.4000 0000000   0.0000  88.8000 13.56072426    13
CTC1_L_00540058-01
1 44493U 25064EM  26037.47809028  .00000000  00000+0  00000-0 0  9996
2 44493  99.7000 136.8000 0000000   0.0000 273.6000 13.56072426    14
CTC1_L_00540058-02
1 44494U 24295EF  26037.47809028  .00000000  00000+0  00000-0 0  9992
2 44494  99.7000 136.8000 0000000   0.0000  93.6000 13.56072426    15
CTC1_L_00540059-01
1 44495U 23463EG  26037.47809028  .00000000  00000+0  00000-0 0  9999
2 44495  99.7000 139.2000 0000000   0.0000 278.4000 13.56072426    16
CTC1_L_00540059-02
1 44496U 24540DC  26037.47809028  .00000000  00000+0  00000-0 0  9997
2 44496  99.7000 139.2000 0000000   0.0000  98.4000 13.56072426    17
CTC1_L_00540060-01
1 44497U 24806HX  26037.47809028  .00000000  00000+0  00000-0 0  9993
2 44497  99.7000 141.6000 0000000   0.0000 283.2000 13.56072426    19
CTC1_L_00540060-02
1 44498U 23515B   26037.47809028  .00000000  00000+0  00000-0 0  9990
2 44498  99.7000 141.6000 0000000   0.0000 103.2000 13.56072426    11
CTC1_L_00540061-01
1 44499U 24920LI  26037.47809028  .00000000  00000+0  00000-0 0  9992
2 44499  99.7000 144.0000 0000000   0.0000 288.0000 13.56072426    11
CTC1_L_00540061-02
1 44500U 25016RL  26037.47809028  .00000000  00000+0  00000-0 0  9992
2 44500  99.7000 144.0000 0000000   0.0000 108.0000 13.56072426    15
CTC1_L_00540062-01
1 44501U 23027FL  26037.47809028  .00000000  00000+0  00000-0 0  9993
2 44501  99.7000 146.4000 0000000   0.0000 292.8000 13.56072426    14
CTC1_L_00540062-02
1 44502U 26885HK  26037.47809028  .00000000  00000+0  00000-0 0  9999
2 44502  99.7000 146.4000 0000000   0.0000 112.8000 13.56072426    16
